<?xml version='1.0' encoding='utf-8'?>
<gpx xmlns="http://www.topografix.com/GPX/1/1" version="1.1" creator="Hermes Roadbook Kurviger"><rte><name>Jour11_Trouver</name><rtept lat="46.421324" lon="11.139488"><name>N1 Camping Park Baita Dolomiti S.R.L.</name></rtept><rtept lat="46.157767" lon="10.174799"><name>Camping Aprica</name></rtept><rtept lat="46.17258" lon="9.403439"><name>Étape</name></rtept><rtept lat="45.993145" lon="8.946648"><name>Étape</name></rtept><rtept lat="45.966186" lon="8.624268"><name>Étape</name></rtept><rtept lat="45.922976" lon="8.429947"><name>Étape</name></rtept><rtept lat="45.875692" lon="8.410042"><name>N1 Trouver Hotel</name></rtept></rte><wpt lat="46.421324" lon="11.139488"><name>N1 Camping Park Baita Dolomiti S.R.L.</name></wpt><wpt lat="46.157767" lon="10.174799"><name>Camping Aprica</name></wpt><wpt lat="46.17258" lon="9.403439"><name>Étape</name></wpt><wpt lat="45.993145" lon="8.946648"><name>Étape</name></wpt><wpt lat="45.966186" lon="8.624268"><name>Étape</name></wpt><wpt lat="45.922976" lon="8.429947"><name>Étape</name></wpt><wpt lat="45.875692" lon="8.410042"><name>N1 Trouver Hotel</name></wpt></gpx>