<?xml version='1.0' encoding='utf-8'?>
<gpx xmlns="http://www.topografix.com/GPX/1/1" version="1.1" creator="Hermes Roadbook Kurviger"><rte><name>Jour10_Park_Baita_Dolomiti</name><rtept lat="46.360938" lon="11.897078"><name>N1 Campeggio Busin</name></rtept><rtept lat="46.305913" lon="12.013206"><name>Étape</name></rtept><rtept lat="46.204547" lon="11.922913"><name>Étape</name></rtept><rtept lat="46.066799" lon="11.653061"><name>Étape</name></rtept><rtept lat="46.271275" lon="11.423378"><name>Étape</name></rtept><rtept lat="46.145113" lon="11.099968"><name>Étape</name></rtept><rtept lat="46.421324" lon="11.139488"><name>N1 Camping Park Baita Dolomiti S.R.L.</name></rtept></rte><wpt lat="46.360938" lon="11.897078"><name>N1 Campeggio Busin</name></wpt><wpt lat="46.305913" lon="12.013206"><name>Étape</name></wpt><wpt lat="46.204547" lon="11.922913"><name>Étape</name></wpt><wpt lat="46.066799" lon="11.653061"><name>Étape</name></wpt><wpt lat="46.271275" lon="11.423378"><name>Étape</name></wpt><wpt lat="46.145113" lon="11.099968"><name>Étape</name></wpt><wpt lat="46.421324" lon="11.139488"><name>N1 Camping Park Baita Dolomiti S.R.L.</name></wpt></gpx>