<?xml version='1.0' encoding='utf-8'?>
<gpx xmlns="http://www.topografix.com/GPX/1/1" version="1.1" creator="Hermes Roadbook Kurviger"><rte><name>Jour03_Albula</name><rtept lat="46.631756" lon="8.591121"><name>N1 Gotthard Camping Andermatt</name></rtept><rtept lat="46.570447" lon="8.394931"><name>Étape</name></rtept><rtept lat="46.476268" lon="8.380208"><name>Étape</name></rtept><rtept lat="46.558934" lon="8.561912"><name>St. Gotthard</name></rtept><rtept lat="46.660747" lon="8.66066"><name>Étape</name></rtept><rtept lat="46.731154" lon="8.951025"><name>Étape</name></rtept><rtept lat="46.460566" lon="9.670029"><name>Étape</name></rtept><rtept lat="46.515169" lon="9.877052"><name>Étape</name></rtept><rtept lat="46.61902" lon="9.753142"><name>N1 Camping Albula</name></rtept></rte><wpt lat="46.631756" lon="8.591121"><name>N1 Gotthard Camping Andermatt</name></wpt><wpt lat="46.570447" lon="8.394931"><name>Étape</name></wpt><wpt lat="46.476268" lon="8.380208"><name>Étape</name></wpt><wpt lat="46.558934" lon="8.561912"><name>St. Gotthard</name></wpt><wpt lat="46.660747" lon="8.66066"><name>Étape</name></wpt><wpt lat="46.731154" lon="8.951025"><name>Étape</name></wpt><wpt lat="46.460566" lon="9.670029"><name>Étape</name></wpt><wpt lat="46.515169" lon="9.877052"><name>Étape</name></wpt><wpt lat="46.61902" lon="9.753142"><name>N1 Camping Albula</name></wpt></gpx>