<?xml version='1.0' encoding='utf-8'?>
<gpx xmlns="http://www.topografix.com/GPX/1/1" version="1.1" creator="Hermes Roadbook Kurviger"><rte><name>Jour08_Miravalle</name><rtept lat="46.775902" lon="12.037588"><name>N1 Alpen Natur Camping</name></rtept><rtept lat="46.729507" lon="12.494202"><name>Étape</name></rtept><rtept lat="46.674883" lon="13.005753"><name>Ballade aprés-midi</name></rtept><rtept lat="46.540916" lon="12.463303"><name>Étape</name></rtept><rtept lat="46.705425" lon="12.220412"><name>Étape</name></rtept><rtept lat="46.581699" lon="12.251749"><name>Misurinapass - Col Sant'Angelo</name></rtept><rtept lat="46.535071" lon="12.138058"><name>Étape</name></rtept><rtept lat="46.51875" lon="12.008432"><name>Étape</name></rtept><rtept lat="46.531476" lon="11.989045"><name>Valparolapass</name></rtept><rtept lat="46.553194" lon="11.876221"><name>Étape</name></rtept><rtept lat="46.531941" lon="11.78009"><name>Étape</name></rtept><rtept lat="46.498392" lon="11.882401"><name>Étape</name></rtept><rtept lat="46.437147" lon="11.981792"><name>Étape</name></rtept><rtept lat="46.472626" lon="11.776829"><name>Étape</name></rtept><rtept lat="46.47635" lon="11.743355"><name>N1 Camping Miravalle</name></rtept></rte><wpt lat="46.775902" lon="12.037588"><name>N1 Alpen Natur Camping</name></wpt><wpt lat="46.729507" lon="12.494202"><name>Étape</name></wpt><wpt lat="46.674883" lon="13.005753"><name>Ballade aprés-midi</name></wpt><wpt lat="46.540916" lon="12.463303"><name>Étape</name></wpt><wpt lat="46.705425" lon="12.220412"><name>Étape</name></wpt><wpt lat="46.581699" lon="12.251749"><name>Misurinapass - Col Sant'Angelo</name></wpt><wpt lat="46.535071" lon="12.138058"><name>Étape</name></wpt><wpt lat="46.51875" lon="12.008432"><name>Étape</name></wpt><wpt lat="46.531476" lon="11.989045"><name>Valparolapass</name></wpt><wpt lat="46.553194" lon="11.876221"><name>Étape</name></wpt><wpt lat="46.531941" lon="11.78009"><name>Étape</name></wpt><wpt lat="46.498392" lon="11.882401"><name>Étape</name></wpt><wpt lat="46.437147" lon="11.981792"><name>Étape</name></wpt><wpt lat="46.472626" lon="11.776829"><name>Étape</name></wpt><wpt lat="46.47635" lon="11.743355"><name>N1 Camping Miravalle</name></wpt></gpx>