<?xml version='1.0' encoding='utf-8'?>
<gpx xmlns="http://www.topografix.com/GPX/1/1" version="1.1" creator="Hermes Roadbook Kurviger"><rte><name>Jour12_etape</name><rtept lat="45.875692" lon="8.410042"><name>N1 Trouver Hotel</name></rtept><rtept lat="45.538099" lon="7.826385"><name>Étape</name></rtept><rtept lat="45.629825" lon="6.783591"><name>Étape</name></rtept><rtept lat="45.695629" lon="6.656342"><name>Étape</name></rtept><rtept lat="45.745246" lon="6.421852"><name>Étape</name></rtept><rtept lat="45.809784" lon="6.061958"><name>Étape</name></rtept></rte><wpt lat="45.875692" lon="8.410042"><name>N1 Trouver Hotel</name></wpt><wpt lat="45.538099" lon="7.826385"><name>Étape</name></wpt><wpt lat="45.629825" lon="6.783591"><name>Étape</name></wpt><wpt lat="45.695629" lon="6.656342"><name>Étape</name></wpt><wpt lat="45.745246" lon="6.421852"><name>Étape</name></wpt><wpt lat="45.809784" lon="6.061958"><name>Étape</name></wpt></gpx>