<?xml version='1.0' encoding='utf-8'?>
<gpx xmlns="http://www.topografix.com/GPX/1/1" version="1.1" creator="Hermes Roadbook Kurviger"><rte><name>Jour06_Ferienparadies_Natterer_See</name><rtept lat="46.474281" lon="11.738205"><name>N4 Camping Miravalle</name></rtept><rtept lat="47.042054" lon="11.486206"><name>Étape</name></rtept><rtept lat="47.238318" lon="11.339084"><name>N2 Ferienparadies Natterer See</name></rtept></rte><wpt lat="46.474281" lon="11.738205"><name>N4 Camping Miravalle</name></wpt><wpt lat="47.042054" lon="11.486206"><name>Étape</name></wpt><wpt lat="47.238318" lon="11.339084"><name>N2 Ferienparadies Natterer See</name></wpt></gpx>