<?xml version='1.0' encoding='utf-8'?>
<gpx xmlns="http://www.topografix.com/GPX/1/1" version="1.1" creator="Hermes Roadbook Kurviger"><rte><name>Jour01_Col_Sanetsch</name><rtept lat="45.809866" lon="6.061889"><name>Départ 29/08/2026</name></rtept><rtept lat="46.045238" lon="6.62158"><name>Plan drone vallée et début vidéo</name></rtept><rtept lat="46.106446" lon="6.713848"><name>Plan drone début des vidéos.</name></rtept><rtept lat="46.2003" lon="6.758013"><name>Plan drone</name></rtept><rtept lat="46.206448" lon="6.776333"><name>Étape</name></rtept><rtept lat="46.301021" lon="6.673722"><name>Étape</name></rtept><rtept lat="46.21025" lon="6.984215"><name>Étape</name></rtept><rtept lat="46.164614" lon="7.18214"><name>Étape</name></rtept><rtept lat="46.310044" lon="7.319673"><name>Plan drone</name></rtept><rtept lat="46.319755" lon="7.307033"><name>Plan drone suivi</name></rtept><rtept lat="46.328758" lon="7.288742"><name>Plan drone suivi fin</name></rtept><rtept lat="46.331402" lon="7.286167"><name>N1 *bivouac ? *camping ? Col du Sanetsch</name></rtept></rte><wpt lat="45.809866" lon="6.061889"><name>Départ 29/08/2026</name></wpt><wpt lat="46.045238" lon="6.62158"><name>Plan drone vallée et début vidéo</name></wpt><wpt lat="46.106446" lon="6.713848"><name>Plan drone début des vidéos.</name></wpt><wpt lat="46.2003" lon="6.758013"><name>Plan drone</name></wpt><wpt lat="46.206448" lon="6.776333"><name>Étape</name></wpt><wpt lat="46.301021" lon="6.673722"><name>Étape</name></wpt><wpt lat="46.21025" lon="6.984215"><name>Étape</name></wpt><wpt lat="46.164614" lon="7.18214"><name>Étape</name></wpt><wpt lat="46.310044" lon="7.319673"><name>Plan drone</name></wpt><wpt lat="46.319755" lon="7.307033"><name>Plan drone suivi</name></wpt><wpt lat="46.328758" lon="7.288742"><name>Plan drone suivi fin</name></wpt><wpt lat="46.331402" lon="7.286167"><name>N1 *bivouac ? *camping ? Col du Sanetsch</name></wpt></gpx>