<?xml version='1.0' encoding='utf-8'?>
<gpx xmlns="http://www.topografix.com/GPX/1/1" version="1.1" creator="Hermes Roadbook Kurviger"><rte><name>Jour02_Gotthard_Andermatt</name><rtept lat="46.331402" lon="7.286167"><name>N1 *bivouac ? *camping ? Col du Sanetsch</name></rtept><rtept lat="46.506" lon="8.307"><name>Étape</name></rtept><rtept lat="46.5594" lon="8.3548"><name>Étape</name></rtept><rtept lat="46.562416" lon="8.339642"><name>Plan Drone Grimsel pass</name></rtept><rtept lat="46.70591" lon="8.229318"><name>Étape</name></rtept><rtept lat="46.72936" lon="8.447092"><name>Plan Drone</name></rtept><rtept lat="46.737129" lon="8.453773"><name>Plan drone en mode suivi</name></rtept><rtept lat="46.745766" lon="8.482239"><name>Récupération drone</name></rtept><rtept lat="46.706808" lon="8.597934"><name>St Gothard</name></rtept><rtept lat="46.631756" lon="8.591121"><name>N1 Gotthard Camping Andermatt</name></rtept></rte><wpt lat="46.331402" lon="7.286167"><name>N1 *bivouac ? *camping ? Col du Sanetsch</name></wpt><wpt lat="46.506" lon="8.307"><name>Étape</name></wpt><wpt lat="46.5594" lon="8.3548"><name>Étape</name></wpt><wpt lat="46.562416" lon="8.339642"><name>Plan Drone Grimsel pass</name></wpt><wpt lat="46.70591" lon="8.229318"><name>Étape</name></wpt><wpt lat="46.72936" lon="8.447092"><name>Plan Drone</name></wpt><wpt lat="46.737129" lon="8.453773"><name>Plan drone en mode suivi</name></wpt><wpt lat="46.745766" lon="8.482239"><name>Récupération drone</name></wpt><wpt lat="46.706808" lon="8.597934"><name>St Gothard</name></wpt><wpt lat="46.631756" lon="8.591121"><name>N1 Gotthard Camping Andermatt</name></wpt></gpx>