<?xml version='1.0' encoding='utf-8'?>
<gpx xmlns="http://www.topografix.com/GPX/1/1" version="1.1" creator="Hermes Roadbook Kurviger"><rte><name>Jour05_Miravalle</name><rtept lat="46.543794" lon="10.506964"><name>N1 Camping Trafoi</name></rtept><rtept lat="46.619585" lon="10.597301"><name>*Camping Trafoi</name></rtept><rtept lat="46.764033" lon="10.533774"><name>*Camping prix Option?  Camping zum See</name></rtept><rtept lat="46.834345" lon="10.510255"><name>Reschenpass - Passo di Resia</name></rtept><rtept lat="46.930236" lon="10.489534"><name>Visite Altfinstermünz Plan Drone ancienne forteresse douanière</name></rtept><rtept lat="47.221703" lon="10.833668"><name>Étape</name></rtept><rtept lat="46.611026" lon="11.255397"><name>Étape</name></rtept><rtept lat="46.503806" lon="11.298433"><name>N2 Camping Moosbauer</name></rtept><rtept lat="46.478125" lon="11.304655"><name>Plan drone Chateau</name></rtept><rtept lat="46.500032" lon="11.359731"><name>Visite ville</name></rtept><rtept lat="46.474281" lon="11.738205"><name>N4 Camping Miravalle</name></rtept></rte><wpt lat="46.543794" lon="10.506964"><name>N1 Camping Trafoi</name></wpt><wpt lat="46.619585" lon="10.597301"><name>*Camping Trafoi</name></wpt><wpt lat="46.764033" lon="10.533774"><name>*Camping prix Option?  Camping zum See</name></wpt><wpt lat="46.834345" lon="10.510255"><name>Reschenpass - Passo di Resia</name></wpt><wpt lat="46.930236" lon="10.489534"><name>Visite Altfinstermünz Plan Drone ancienne forteresse douanière</name></wpt><wpt lat="47.221703" lon="10.833668"><name>Étape</name></wpt><wpt lat="46.611026" lon="11.255397"><name>Étape</name></wpt><wpt lat="46.503806" lon="11.298433"><name>N2 Camping Moosbauer</name></wpt><wpt lat="46.478125" lon="11.304655"><name>Plan drone Chateau</name></wpt><wpt lat="46.500032" lon="11.359731"><name>Visite ville</name></wpt><wpt lat="46.474281" lon="11.738205"><name>N4 Camping Miravalle</name></wpt></gpx>