<?xml version='1.0' encoding='utf-8'?>
<gpx xmlns="http://www.topografix.com/GPX/1/1" version="1.1" creator="Hermes Roadbook Kurviger"><rte><name>Jour07_Alpen_Natur</name><rtept lat="47.238318" lon="11.339084"><name>N2 Ferienparadies Natterer See</name></rtept><rtept lat="47.328468" lon="11.188202"><name>Visite ville</name></rtept><rtept lat="47.26432" lon="11.400719"><name>Étape</name></rtept><rtept lat="47.27662" lon="11.523972"><name>Étape</name></rtept><rtept lat="47.249523" lon="11.867294"><name>Étape</name></rtept><rtept lat="47.238879" lon="11.850249"><name>Étape</name></rtept><rtept lat="47.236355" lon="12.159119"><name>Étape</name></rtept><rtept lat="47.218231" lon="12.175429"><name>N1 Camping Krimmler Wasserfälle</name></rtept><rtept lat="47.116102" lon="12.823781"><name>Étape</name></rtept><rtept lat="46.873101" lon="12.134056"><name>Étape</name></rtept><rtept lat="46.775902" lon="12.037588"><name>N1 Alpen Natur Camping</name></rtept></rte><wpt lat="47.238318" lon="11.339084"><name>N2 Ferienparadies Natterer See</name></wpt><wpt lat="47.328468" lon="11.188202"><name>Visite ville</name></wpt><wpt lat="47.26432" lon="11.400719"><name>Étape</name></wpt><wpt lat="47.27662" lon="11.523972"><name>Étape</name></wpt><wpt lat="47.249523" lon="11.867294"><name>Étape</name></wpt><wpt lat="47.238879" lon="11.850249"><name>Étape</name></wpt><wpt lat="47.236355" lon="12.159119"><name>Étape</name></wpt><wpt lat="47.218231" lon="12.175429"><name>N1 Camping Krimmler Wasserfälle</name></wpt><wpt lat="47.116102" lon="12.823781"><name>Étape</name></wpt><wpt lat="46.873101" lon="12.134056"><name>Étape</name></wpt><wpt lat="46.775902" lon="12.037588"><name>N1 Alpen Natur Camping</name></wpt></gpx>