<?xml version="1.0" encoding="UTF-8"?>
<gpx version="1.1" creator="LCDMH" xmlns="http://www.topografix.com/GPX/1/1">
  <metadata><name>Jour 15</name></metadata>
  <trk>
    <name>Jour 15 - N1_Camping_Miravalle</name>
    <trkseg>
      <trkpt lat="46.775902" lon="12.037588"><name>N1 Alpen Natur Camping</name></trkpt>
      <trkpt lat="46.729507" lon="12.494202"><name></name></trkpt>
      <trkpt lat="46.674883" lon="13.005753"><name>Ballade aprés-midi</name></trkpt>
      <trkpt lat="46.540916" lon="12.463303"><name></name></trkpt>
      <trkpt lat="46.705425" lon="12.220412"><name></name></trkpt>
      <trkpt lat="46.581699" lon="12.251749"><name>Misurinapass - Col Sant'Angelo</name></trkpt>
      <trkpt lat="46.535071" lon="12.138058"><name></name></trkpt>
      <trkpt lat="46.51875" lon="12.008432"><name></name></trkpt>
      <trkpt lat="46.531476" lon="11.989045"><name>Valparolapass</name></trkpt>
      <trkpt lat="46.553194" lon="11.876221"><name></name></trkpt>
      <trkpt lat="46.531941" lon="11.78009"><name></name></trkpt>
      <trkpt lat="46.498392" lon="11.882401"><name></name></trkpt>
      <trkpt lat="46.437147" lon="11.981792"><name></name></trkpt>
      <trkpt lat="46.472626" lon="11.776829"><name></name></trkpt>
      <trkpt lat="46.47635" lon="11.743355"><name>N1 Camping Miravalle</name></trkpt>
    </trkseg>
  </trk>
</gpx>