<?xml version="1.0" encoding="UTF-8"?>
<gpx version="1.1" creator="LCDMH" xmlns="http://www.topografix.com/GPX/1/1">
  <metadata><name>Jour 18</name></metadata>
  <trk>
    <name>Jour 18 - N1_Trouver_Hotel</name>
    <trkseg>
      <trkpt lat="46.421324" lon="11.139488"><name>N1 Camping Park Baita Dolomiti S.R.L.</name></trkpt>
      <trkpt lat="46.157767" lon="10.174799"><name>Camping Aprica</name></trkpt>
      <trkpt lat="46.17258" lon="9.403439"><name></name></trkpt>
      <trkpt lat="45.993145" lon="8.946648"><name></name></trkpt>
      <trkpt lat="45.966186" lon="8.624268"><name></name></trkpt>
      <trkpt lat="45.922976" lon="8.429947"><name></name></trkpt>
      <trkpt lat="45.875692" lon="8.410042"><name>N1 Trouver Hotel</name></trkpt>
    </trkseg>
  </trk>
</gpx>