<?xml version="1.0" encoding="UTF-8"?>
<gpx version="1.1" creator="LCDMH" xmlns="http://www.topografix.com/GPX/1/1">
  <metadata><name>Jour 14</name></metadata>
  <trk>
    <name>Jour 14 - N1_Alpen_Natur_Camping</name>
    <trkseg>
      <trkpt lat="47.218231" lon="12.175429"><name>N1 Camping Krimmler Wasserfälle</name></trkpt>
      <trkpt lat="47.116102" lon="12.823781"><name></name></trkpt>
      <trkpt lat="46.873101" lon="12.134056"><name></name></trkpt>
      <trkpt lat="46.775902" lon="12.037588"><name>N1 Alpen Natur Camping</name></trkpt>
    </trkseg>
  </trk>
</gpx>