<?xml version="1.0" encoding="UTF-8"?>
<gpx version="1.1" creator="LCDMH" xmlns="http://www.topografix.com/GPX/1/1">
  <metadata><name>Jour 13</name></metadata>
  <trk>
    <name>Jour 13 - N1_Camping_Krimmler_Wasserfalle</name>
    <trkseg>
      <trkpt lat="47.238318" lon="11.339084"><name>N2 Ferienparadies Natterer See</name></trkpt>
      <trkpt lat="47.328468" lon="11.188202"><name>Visite ville </name></trkpt>
      <trkpt lat="47.26432" lon="11.400719"><name></name></trkpt>
      <trkpt lat="47.27662" lon="11.523972"><name></name></trkpt>
      <trkpt lat="47.249523" lon="11.867294"><name></name></trkpt>
      <trkpt lat="47.238879" lon="11.850249"><name></name></trkpt>
      <trkpt lat="47.236355" lon="12.159119"><name></name></trkpt>
      <trkpt lat="47.218231" lon="12.175429"><name>N1 Camping Krimmler Wasserfälle</name></trkpt>
    </trkseg>
  </trk>
</gpx>