<?xml version="1.0" encoding="UTF-8"?>
<gpx version="1.1" creator="LCDMH" xmlns="http://www.topografix.com/GPX/1/1">
  <metadata><name>Jour 05</name></metadata>
  <trk>
    <name>Jour 05 - N2_Camping_Moosbauer</name>
    <trkseg>
      <trkpt lat="46.543794" lon="10.506964"><name>N1 Camping Trafoi</name></trkpt>
      <trkpt lat="46.619585" lon="10.597301"><name>*Camping Trafoi </name></trkpt>
      <trkpt lat="46.764033" lon="10.533774"><name>*Camping prix Option?  Camping zum See</name></trkpt>
      <trkpt lat="46.834345" lon="10.510255"><name>Reschenpass - Passo di Resia</name></trkpt>
      <trkpt lat="46.930236" lon="10.489534"><name>Visite Altfinstermünz Plan Drone ancienne forteresse douanière</name></trkpt>
      <trkpt lat="47.221703" lon="10.833668"><name></name></trkpt>
      <trkpt lat="46.611026" lon="11.255397"><name></name></trkpt>
      <trkpt lat="46.503806" lon="11.298433"><name>N2 Camping Moosbauer</name></trkpt>
    </trkseg>
  </trk>
</gpx>