<?xml version="1.0" encoding="UTF-8"?>
<gpx version="1.1" creator="LCDMH" xmlns="http://www.topografix.com/GPX/1/1">
  <metadata><name>Jour 02</name></metadata>
  <trk>
    <name>Jour 02 - N1_Gotthard_Camping_Andermatt</name>
    <trkseg>
      <trkpt lat="46.331402" lon="7.286167"><name>N1 *bivouac ? *camping ? Col du Sanetsch</name></trkpt>
      <trkpt lat="46.506" lon="8.307"><name></name></trkpt>
      <trkpt lat="46.5594" lon="8.3548"><name></name></trkpt>
      <trkpt lat="46.562416" lon="8.339642"><name>Plan Drone Grimsel pass</name></trkpt>
      <trkpt lat="46.70591" lon="8.229318"><name></name></trkpt>
      <trkpt lat="46.72936" lon="8.447092"><name>Plan Drone</name></trkpt>
      <trkpt lat="46.737129" lon="8.453773"><name>Plan drone en mode suivi</name></trkpt>
      <trkpt lat="46.745766" lon="8.482239"><name>Récupération drone</name></trkpt>
      <trkpt lat="46.706808" lon="8.597934"><name>St Gothard</name></trkpt>
      <trkpt lat="46.631756" lon="8.591121"><name>N1 Gotthard Camping Andermatt</name></trkpt>
    </trkseg>
  </trk>
</gpx>