<?xml version="1.0" encoding="UTF-8"?>
<gpx version="1.1" creator="LCDMH" xmlns="http://www.topografix.com/GPX/1/1">
  <metadata><name>Jour 17</name></metadata>
  <trk>
    <name>Jour 17 - N1_Camping_Park_Baita_Dolomiti_SR</name>
    <trkseg>
      <trkpt lat="46.360938" lon="11.897078"><name>N1 Campeggio Busin</name></trkpt>
      <trkpt lat="46.305913" lon="12.013206"><name></name></trkpt>
      <trkpt lat="46.204547" lon="11.922913"><name></name></trkpt>
      <trkpt lat="46.066799" lon="11.653061"><name></name></trkpt>
      <trkpt lat="46.271275" lon="11.423378"><name></name></trkpt>
      <trkpt lat="46.145113" lon="11.099968"><name></name></trkpt>
      <trkpt lat="46.421324" lon="11.139488"><name>N1 Camping Park Baita Dolomiti S.R.L.</name></trkpt>
    </trkseg>
  </trk>
</gpx>