<?xml version="1.0" encoding="UTF-8"?>
<gpx version="1.1" creator="LCDMH" xmlns="http://www.topografix.com/GPX/1/1">
  <metadata><name>Jour 04</name></metadata>
  <trk>
    <name>Jour 04 - N1_Camping_Trafoi</name>
    <trkseg>
      <trkpt lat="46.61902" lon="9.753142"><name>N1 Camping Albula </name></trkpt>
      <trkpt lat="46.719152" lon="9.765472"><name></name></trkpt>
      <trkpt lat="46.749903" lon="9.947798"><name>46.749903,9.947798</name></trkpt>
      <trkpt lat="46.6326" lon="10.013384"><name>Camping Chapella</name></trkpt>
      <trkpt lat="46.48421" lon="9.910355"><name></name></trkpt>
      <trkpt lat="46.52958" lon="10.138664"><name></name></trkpt>
      <trkpt lat="46.539558" lon="10.433192"><name></name></trkpt>
      <trkpt lat="46.601295" lon="10.423869"><name>*Camping prix Option? </name></trkpt>
      <trkpt lat="46.543794" lon="10.506964"><name>N1 Camping Trafoi</name></trkpt>
    </trkseg>
  </trk>
</gpx>