<?xml version="1.0" encoding="UTF-8"?>
<gpx version="1.1" creator="LCDMH" xmlns="http://www.topografix.com/GPX/1/1">
  <metadata><name>Jour 16</name></metadata>
  <trk>
    <name>Jour 16 - N1_Campeggio_Busin</name>
    <trkseg>
      <trkpt lat="46.47635" lon="11.743355"><name>N1 Camping Miravalle</name></trkpt>
      <trkpt lat="46.419872" lon="11.68087"><name></name></trkpt>
      <trkpt lat="46.404235" lon="11.609073"><name>Karerpass</name></trkpt>
      <trkpt lat="46.32678" lon="11.484489"><name></name></trkpt>
      <trkpt lat="46.378358" lon="11.79172"><name></name></trkpt>
      <trkpt lat="46.35925" lon="11.846008"><name></name></trkpt>
      <trkpt lat="46.360938" lon="11.897078"><name>N1 Campeggio Busin</name></trkpt>
    </trkseg>
  </trk>
</gpx>