<?xml version="1.0" encoding="UTF-8"?>
<gpx version="1.1" creator="LCDMH" xmlns="http://www.topografix.com/GPX/1/1">
  <metadata><name>Jour 19</name></metadata>
  <trk>
    <name>Jour 19 - etape</name>
    <trkseg>
      <trkpt lat="45.875692" lon="8.410042"><name>N1 Trouver Hotel</name></trkpt>
      <trkpt lat="45.538099" lon="7.826385"><name></name></trkpt>
      <trkpt lat="45.629825" lon="6.783591"><name></name></trkpt>
      <trkpt lat="45.695629" lon="6.656342"><name></name></trkpt>
      <trkpt lat="45.745246" lon="6.421852"><name></name></trkpt>
      <trkpt lat="45.809784" lon="6.061958"><name></name></trkpt>
    </trkseg>
  </trk>
</gpx>