<?xml version="1.0" encoding="UTF-8"?>
<gpx version="1.1" creator="LCDMH" xmlns="http://www.topografix.com/GPX/1/1">
  <metadata><name>Jour 03</name></metadata>
  <trk>
    <name>Jour 03 - N1_Camping_Albula</name>
    <trkseg>
      <trkpt lat="46.631756" lon="8.591121"><name>N1 Gotthard Camping Andermatt</name></trkpt>
      <trkpt lat="46.570447" lon="8.394931"><name></name></trkpt>
      <trkpt lat="46.476268" lon="8.380208"><name></name></trkpt>
      <trkpt lat="46.558934" lon="8.561912"><name>St. Gotthard</name></trkpt>
      <trkpt lat="46.660747" lon="8.66066"><name></name></trkpt>
      <trkpt lat="46.731154" lon="8.951025"><name></name></trkpt>
      <trkpt lat="46.460566" lon="9.670029"><name></name></trkpt>
      <trkpt lat="46.515169" lon="9.877052"><name></name></trkpt>
      <trkpt lat="46.61902" lon="9.753142"><name>N1 Camping Albula </name></trkpt>
    </trkseg>
  </trk>
</gpx>