<?xml version="1.0" encoding="UTF-8"?>
<gpx version="1.1" creator="LCDMH" xmlns="http://www.topografix.com/GPX/1/1">
  <metadata><name>Jour 01</name></metadata>
  <trk>
    <name>Jour 01 - N1_bivouac_camping_Col_du_San</name>
    <trkseg>
      <trkpt lat="45.809866" lon="6.061889"><name>Départ 29/08/2026</name></trkpt>
      <trkpt lat="46.045238" lon="6.62158"><name>Plan drone vallée et début vidéo</name></trkpt>
      <trkpt lat="46.106446" lon="6.713848"><name>Plan drone début des vidéos. </name></trkpt>
      <trkpt lat="46.2003" lon="6.758013"><name>Plan drone</name></trkpt>
      <trkpt lat="46.206448" lon="6.776333"><name></name></trkpt>
      <trkpt lat="46.301021" lon="6.673722"><name></name></trkpt>
      <trkpt lat="46.21025" lon="6.984215"><name></name></trkpt>
      <trkpt lat="46.164614" lon="7.18214"><name></name></trkpt>
      <trkpt lat="46.310044" lon="7.319673"><name>Plan drone</name></trkpt>
      <trkpt lat="46.319755" lon="7.307033"><name>Plan drone suivi </name></trkpt>
      <trkpt lat="46.328758" lon="7.288742"><name>Plan drone suivi fin</name></trkpt>
      <trkpt lat="46.331402" lon="7.286167"><name>N1 *bivouac ? *camping ? Col du Sanetsch</name></trkpt>
    </trkseg>
  </trk>
</gpx>