<?xml version="1.0" encoding="UTF-8"?>
<gpx version="1.1" creator="LCDMH" xmlns="http://www.topografix.com/GPX/1/1">
  <metadata><name>Jour 07</name></metadata>
  <trk>
    <name>Jour 07 - N4_Camping_Miravalle</name>
    <trkseg>
      <trkpt lat="46.503806" lon="11.298433"><name>N2 Camping Moosbauer</name></trkpt>
      <trkpt lat="46.478125" lon="11.304655"><name>Plan drone Chateau</name></trkpt>
      <trkpt lat="46.500032" lon="11.359731"><name>Visite ville</name></trkpt>
      <trkpt lat="46.474281" lon="11.738205"><name>N4 Camping Miravalle</name></trkpt>
    </trkseg>
  </trk>
</gpx>