<?xml version="1.0" encoding="UTF-8"?>
<gpx version="1.1" creator="LCDMH" xmlns="http://www.topografix.com/GPX/1/1">
  <metadata><name>Jour 11</name></metadata>
  <trk>
    <name>Jour 11 - N2_Ferienparadies_Natterer_See</name>
    <trkseg>
      <trkpt lat="46.474281" lon="11.738205"><name>N4 Camping Miravalle</name></trkpt>
      <trkpt lat="47.042054" lon="11.486206"><name></name></trkpt>
      <trkpt lat="47.238318" lon="11.339084"><name>N2 Ferienparadies Natterer See</name></trkpt>
    </trkseg>
  </trk>
</gpx>