<?xml version='1.0' encoding='utf-8'?>
<gpx xmlns="http://www.topografix.com/GPX/1/1" version="1.1" creator="Hermes Roadbook POI Alerts">
  <wpt lat="46.331575" lon="7.286225"><name>29/08/2026 Glarey</name><sym>Flag</sym></wpt>
  <wpt lat="46.331575" lon="7.286225"><name>⭐ Col — Col du Sanetsch</name><sym>Scenic Area</sym></wpt>
  <wpt lat="46.332076" lon="7.283147"><name>⭐ Col — Col</name><sym>Scenic Area</sym></wpt>
  <wpt lat="46.357777" lon="7.308745"><name>⭐ Col — Rossgrabenlücke</name><sym>Scenic Area</sym></wpt>
  <wpt lat="46.326788" lon="7.230767"><name>⭐ Col — Oldesattel</name><sym>Scenic Area</sym></wpt>
  <wpt lat="46.299255" lon="7.311924"><name>⭐ Falaise — Mordor</name><sym>Scenic Area</sym></wpt>
  <wpt lat="46.363393" lon="7.342102"><name>⭐ Falaise — Falaise</name><sym>Scenic Area</sym></wpt>
  <wpt lat="46.618725" lon="8.566868"><name>30/08/2026 Andermatt</name><sym>Flag</sym></wpt>
  <wpt lat="46.618725" lon="8.566868"><name>⭐ Point de vue — Point de vue</name><sym>Scenic Area</sym></wpt>
  <wpt lat="46.616898" lon="8.568817"><name>⭐ Point de vue — Grand Tour of Switzerland Photo Spot in Hos</name><sym>Scenic Area</sym></wpt>
  <wpt lat="46.616886" lon="8.568735"><name>⭐ Point de vue — Grand tour of Switzerland Foto Spot</name><sym>Scenic Area</sym></wpt>
  <wpt lat="46.618684" lon="8.566797"><name>⭐ Château — Burg Hospental</name><sym>Scenic Area</sym></wpt>
  <wpt lat="46.641311" lon="8.547926"><name>⭐ Col — Lochstocklücke</name><sym>Scenic Area</sym></wpt>
  <wpt lat="46.596362" lon="8.608652"><name>⭐ Col — Gafallenlücke</name><sym>Scenic Area</sym></wpt>
  <wpt lat="46.628131" lon="9.756608"><name>31/08/2026 Bergün/Bravuogn</name><sym>Flag</sym></wpt>
  <wpt lat="46.628131" lon="9.756608"><name>⭐ Point de vue — Point de vue</name><sym>Scenic Area</sym></wpt>
  <wpt lat="46.590212" lon="9.753477"><name>⭐ Point de vue — Fallò</name><sym>Scenic Area</sym></wpt>
  <wpt lat="46.601649" lon="9.702003"><name>⭐ Col — Furschella</name><sym>Scenic Area</sym></wpt>
  <wpt lat="46.592432" lon="9.710860"><name>⭐ Col — Fuorcla da Tschitta</name><sym>Scenic Area</sym></wpt>
  <wpt lat="46.638935" lon="9.733463"><name>⭐ Falaise — Falaise</name><sym>Scenic Area</sym></wpt>
  <wpt lat="46.609156" lon="9.734051"><name>⭐ Sommet — Piz Rugnux</name><sym>Scenic Area</sym></wpt>
  <wpt lat="46.527223" lon="10.499676"><name>01/09/2026 Trafoi</name><sym>Flag</sym></wpt>
  <wpt lat="46.527223" lon="10.499676"><name>⭐ Point de vue — Point de vue</name><sym>Scenic Area</sym></wpt>
  <wpt lat="46.572175" lon="10.478854"><name>⭐ Point de vue — Fallaschjoch - Passo di Vallazza</name><sym>Scenic Area</sym></wpt>
  <wpt lat="46.528921" lon="10.454063"><name>⭐ Point de vue — Stilfserjoch - Passo Stelvio</name><sym>Scenic Area</sym></wpt>
  <wpt lat="46.539189" lon="10.472468"><name>⭐ Château — Château</name><sym>Scenic Area</sym></wpt>
  <wpt lat="46.543735" lon="10.543297"><name>⭐ Col — Hochleitenjoch - Forcella Punta Alta</name><sym>Scenic Area</sym></wpt>
  <wpt lat="46.535128" lon="10.541454"><name>⭐ Col — Bärenkopfscharte - Forcella dell'Orso</name><sym>Scenic Area</sym></wpt>
  <wpt lat="46.512812" lon="11.342481"><name>02/09/2026 Bolzano</name><sym>Flag</sym></wpt>
  <wpt lat="46.512812" lon="11.342481"><name>⭐ Point de vue — Aussichtspunkt Fagener Wasserfall</name><sym>Scenic Area</sym></wpt>
  <wpt lat="46.532552" lon="11.262631"><name>⭐ Point de vue — Gruner Wänd'</name><sym>Scenic Area</sym></wpt>
  <wpt lat="46.487170" lon="11.244555"><name>⭐ Point de vue — Point de vue</name><sym>Scenic Area</sym></wpt>
  <wpt lat="46.512013" lon="11.291774"><name>⭐ Château — Burg Greifenstein - Castel Greifenstein</name><sym>Scenic Area</sym></wpt>
  <wpt lat="46.521868" lon="11.275250"><name>⭐ Château — Helfenburg - Castel Soccorso</name><sym>Scenic Area</sym></wpt>
  <wpt lat="46.511436" lon="11.346598"><name>⭐ Château — Torre Druso - Gscheibter Turm</name><sym>Scenic Area</sym></wpt>
  <wpt lat="46.480018" lon="11.772725"><name>04/09/2026 Campitello di Fassa - Ciampedel</name><sym>Flag</sym></wpt>
  <wpt lat="46.480018" lon="11.772725"><name>⭐ Point de vue — Point de vue</name><sym>Scenic Area</sym></wpt>
  <wpt lat="46.435118" lon="11.761055"><name>⭐ Point de vue — Punto video</name><sym>Scenic Area</sym></wpt>
  <wpt lat="46.450522" lon="11.762949"><name>⭐ Col — Pian de Sele</name><sym>Scenic Area</sym></wpt>
  <wpt lat="46.445002" lon="11.745740"><name>⭐ Col — Sela de Ciamol</name><sym>Scenic Area</sym></wpt>
  <wpt lat="46.509615" lon="11.724224"><name>⭐ Col — Furcela de Sasplat - Forcella del Sassopiatto</name><sym>Scenic Area</sym></wpt>
  <wpt lat="46.510118" lon="11.727044"><name>⭐ Col — Forcella del Dente</name><sym>Scenic Area</sym></wpt>
  <wpt lat="47.257829" lon="11.351339"><name>08/09/2026 Natters</name><sym>Flag</sym></wpt>
  <wpt lat="47.257829" lon="11.351339"><name>⭐ Point de vue — Besucherterrasse</name><sym>Scenic Area</sym></wpt>
  <wpt lat="47.228079" lon="11.304999"><name>⭐ Point de vue — Point de vue</name><sym>Scenic Area</sym></wpt>
  <wpt lat="47.246209" lon="11.401763"><name>⭐ Point de vue — Drachenfelsen</name><sym>Scenic Area</sym></wpt>
  <wpt lat="47.242231" lon="11.312798"><name>⭐ Château — Burgruine Vellenberg</name><sym>Scenic Area</sym></wpt>
  <wpt lat="47.248603" lon="11.363077"><name>⭐ Château — Schloss Mentlberg</name><sym>Scenic Area</sym></wpt>
  <wpt lat="47.270773" lon="11.339440"><name>⭐ Falaise — Knappenwand</name><sym>Scenic Area</sym></wpt>
  <wpt lat="47.212033" lon="12.165724"><name>10/09/2026 Krimml</name><sym>Flag</sym></wpt>
  <wpt lat="47.212033" lon="12.165724"><name>⭐ Point de vue — Krimmler Wasserfall</name><sym>Scenic Area</sym></wpt>
  <wpt lat="47.207393" lon="12.171091"><name>⭐ Point de vue — Regen Kanzel</name><sym>Scenic Area</sym></wpt>
  <wpt lat="47.207557" lon="12.169631"><name>⭐ Point de vue — Rieman Kanzel</name><sym>Scenic Area</sym></wpt>
  <wpt lat="47.207088" lon="12.171282"><name>⭐ Point de vue — Sendtner Kanzel</name><sym>Scenic Area</sym></wpt>
  <wpt lat="47.206744" lon="12.171590"><name>⭐ Point de vue — Jung Kanzel</name><sym>Scenic Area</sym></wpt>
  <wpt lat="47.206654" lon="12.171770"><name>⭐ Point de vue — Jagasprung</name><sym>Scenic Area</sym></wpt>
  <wpt lat="46.804390" lon="12.018202"><name>11/09/2026 Niederrasen - Rasun di Sotto</name><sym>Flag</sym></wpt>
  <wpt lat="46.804390" lon="12.018202"><name>⭐ Point de vue — Point de vue</name><sym>Scenic Area</sym></wpt>
  <wpt lat="46.790940" lon="12.040937"><name>⭐ Château — Burg Neurasen - Castelnuovo Rasun</name><sym>Scenic Area</sym></wpt>
  <wpt lat="46.756067" lon="12.075442"><name>⭐ Col — Salla</name><sym>Scenic Area</sym></wpt>
  <wpt lat="46.804760" lon="12.018646"><name>⭐ Falaise — Falaise</name><sym>Scenic Area</sym></wpt>
  <wpt lat="46.777031" lon="12.055505"><name>⭐ Ruines — Burg Altrasen</name><sym>Scenic Area</sym></wpt>
  <wpt lat="46.799490" lon="11.997967"><name>⭐ Site archéologique — Sonnwendstein</name><sym>Scenic Area</sym></wpt>
  <wpt lat="46.480018" lon="11.772725"><name>12/09/2026 Campitello di Fassa - Ciampedel</name><sym>Flag</sym></wpt>
  <wpt lat="46.480018" lon="11.772725"><name>⭐ Point de vue — Point de vue</name><sym>Scenic Area</sym></wpt>
  <wpt lat="46.435118" lon="11.761055"><name>⭐ Point de vue — Punto video</name><sym>Scenic Area</sym></wpt>
  <wpt lat="46.450522" lon="11.762949"><name>⭐ Col — Pian de Sele</name><sym>Scenic Area</sym></wpt>
  <wpt lat="46.445002" lon="11.745740"><name>⭐ Col — Sela de Ciamol</name><sym>Scenic Area</sym></wpt>
  <wpt lat="46.510118" lon="11.727044"><name>⭐ Col — Forcella del Dente</name><sym>Scenic Area</sym></wpt>
  <wpt lat="46.509615" lon="11.724224"><name>⭐ Col — Furcela de Sasplat - Forcella del Sassopiatto</name><sym>Scenic Area</sym></wpt>
  <wpt lat="46.334375" lon="11.931624"><name>13/09/2026 Caviola</name><sym>Flag</sym></wpt>
  <wpt lat="46.334375" lon="11.931624"><name>⭐ Point de vue — Point de vue</name><sym>Scenic Area</sym></wpt>
  <wpt lat="46.381791" lon="11.911687"><name>⭐ Col — Forzela L'Agazon</name><sym>Scenic Area</sym></wpt>
  <wpt lat="46.398735" lon="11.900453"><name>⭐ Col — Forcella dei Negher</name><sym>Scenic Area</sym></wpt>
  <wpt lat="46.329476" lon="11.930746"><name>⭐ Col — Forcella Pape</name><sym>Scenic Area</sym></wpt>
  <wpt lat="46.398956" lon="11.914385"><name>⭐ Col — Forcella Pianezze</name><sym>Scenic Area</sym></wpt>
  <wpt lat="46.380686" lon="11.948618"><name>⭐ Col — Forcella di San Tomaso</name><sym>Scenic Area</sym></wpt>
  <wpt lat="46.447320" lon="11.175740"><name>14/09/2026 Sarnonico</name><sym>Flag</sym></wpt>
  <wpt lat="46.447320" lon="11.175740"><name>⭐ Point de vue — Point de vue</name><sym>Scenic Area</sym></wpt>
  <wpt lat="46.437289" lon="11.140381"><name>⭐ Château — Castel Malosco</name><sym>Scenic Area</sym></wpt>
  <wpt lat="46.426206" lon="11.113131"><name>⭐ Château — Castel Vasio</name><sym>Scenic Area</sym></wpt>
  <wpt lat="46.447669" lon="11.124078"><name>⭐ Château — Castello di Castelfondo</name><sym>Scenic Area</sym></wpt>
  <wpt lat="46.417638" lon="11.096970"><name>⭐ Château — Castel Sant'Anna</name><sym>Scenic Area</sym></wpt>
  <wpt lat="46.426159" lon="11.096601"><name>⭐ Château — Palazzo Arsio</name><sym>Scenic Area</sym></wpt>
  <wpt lat="45.870975" lon="8.376962"><name>15/09/2026 Bagnella</name><sym>Flag</sym></wpt>
  <wpt lat="45.870975" lon="8.376962"><name>⭐ Point de vue — Area Panoramica Belvedere</name><sym>Scenic Area</sym></wpt>
  <wpt lat="45.842969" lon="8.425026"><name>⭐ Point de vue — Point de vue</name><sym>Scenic Area</sym></wpt>
  <wpt lat="45.915679" lon="8.382341"><name>⭐ Col — Colle Vallessa</name><sym>Scenic Area</sym></wpt>
  <wpt lat="45.884839" lon="8.385822"><name>⭐ Falaise — Falaise</name><sym>Scenic Area</sym></wpt>
  <wpt lat="45.872759" lon="8.444468"><name>⭐ Falaise — Stella</name><sym>Scenic Area</sym></wpt>
  <wpt lat="45.871938" lon="8.444555"><name>⭐ Falaise — Pera Aquila</name><sym>Scenic Area</sym></wpt>
  <wpt lat="45.797784" lon="6.107276"><name>16/09/2026 Viuz-la-Chiésaz</name><sym>Flag</sym></wpt>
  <wpt lat="45.797784" lon="6.107276"><name>⭐ Point de vue — Point de vue</name><sym>Scenic Area</sym></wpt>
  <wpt lat="45.807817" lon="6.116570"><name>⭐ Point de vue — Belvédère du Sentier du Planay</name><sym>Scenic Area</sym></wpt>
  <wpt lat="45.813328" lon="6.121522"><name>⭐ Point de vue — Belvédère de Bénévent</name><sym>Scenic Area</sym></wpt>
  <wpt lat="45.765889" lon="6.056079"><name>⭐ Point de vue — Chaos du Chéran</name><sym>Scenic Area</sym></wpt>
  <wpt lat="45.809210" lon="6.025124"><name>⭐ Château — Château de Pierrecharve</name><sym>Scenic Area</sym></wpt>
  <wpt lat="45.820380" lon="6.021559"><name>⭐ Château — Château de Montpon</name><sym>Scenic Area</sym></wpt>
</gpx>
