<?xml version='1.0' encoding='utf-8'?>
<gpx xmlns="http://www.topografix.com/GPX/1/1" version="1.1" creator="Hermes Roadbook Kurviger"><rte><name>Jour04_Trafoi</name><rtept lat="46.61902" lon="9.753142"><name>N1 Camping Albula</name></rtept><rtept lat="46.719152" lon="9.765472"><name>Étape</name></rtept><rtept lat="46.749903" lon="9.947798"><name>46.749903,9.947798</name></rtept><rtept lat="46.6326" lon="10.013384"><name>Camping Chapella</name></rtept><rtept lat="46.48421" lon="9.910355"><name>Étape</name></rtept><rtept lat="46.52958" lon="10.138664"><name>Étape</name></rtept><rtept lat="46.539558" lon="10.433192"><name>Étape</name></rtept><rtept lat="46.601295" lon="10.423869"><name>*Camping prix Option?</name></rtept><rtept lat="46.543794" lon="10.506964"><name>N1 Camping Trafoi</name></rtept></rte><wpt lat="46.61902" lon="9.753142"><name>N1 Camping Albula</name></wpt><wpt lat="46.719152" lon="9.765472"><name>Étape</name></wpt><wpt lat="46.749903" lon="9.947798"><name>46.749903,9.947798</name></wpt><wpt lat="46.6326" lon="10.013384"><name>Camping Chapella</name></wpt><wpt lat="46.48421" lon="9.910355"><name>Étape</name></wpt><wpt lat="46.52958" lon="10.138664"><name>Étape</name></wpt><wpt lat="46.539558" lon="10.433192"><name>Étape</name></wpt><wpt lat="46.601295" lon="10.423869"><name>*Camping prix Option?</name></wpt><wpt lat="46.543794" lon="10.506964"><name>N1 Camping Trafoi</name></wpt></gpx>