<?xml version='1.0' encoding='utf-8'?>
<gpx xmlns="http://www.topografix.com/GPX/1/1" version="1.1" creator="Hermes Roadbook Kurviger"><rte><name>Jour09_Campeggio_Busin</name><rtept lat="46.47635" lon="11.743355"><name>N1 Camping Miravalle</name></rtept><rtept lat="46.419872" lon="11.68087"><name>Étape</name></rtept><rtept lat="46.404235" lon="11.609073"><name>Karerpass</name></rtept><rtept lat="46.32678" lon="11.484489"><name>Étape</name></rtept><rtept lat="46.378358" lon="11.79172"><name>Étape</name></rtept><rtept lat="46.35925" lon="11.846008"><name>Étape</name></rtept><rtept lat="46.360938" lon="11.897078"><name>N1 Campeggio Busin</name></rtept></rte><wpt lat="46.47635" lon="11.743355"><name>N1 Camping Miravalle</name></wpt><wpt lat="46.419872" lon="11.68087"><name>Étape</name></wpt><wpt lat="46.404235" lon="11.609073"><name>Karerpass</name></wpt><wpt lat="46.32678" lon="11.484489"><name>Étape</name></wpt><wpt lat="46.378358" lon="11.79172"><name>Étape</name></wpt><wpt lat="46.35925" lon="11.846008"><name>Étape</name></wpt><wpt lat="46.360938" lon="11.897078"><name>N1 Campeggio Busin</name></wpt></gpx>